BEIDOU-2 IGSO-1 (C06)   
1 36828U 10036A   25074.68799442 -.00000116  00000+0  00000+0 0  9991
2 36828  54.2674 167.1095 0045524 210.8155 147.8617  1.00252481 53496
BEIDOU-2 G4 (C04)       
1 37210U 10057A   25076.50544036 -.00000107  00000+0  00000+0 0  9990
2 37210   2.5125  70.4374 0006813 207.7470 239.1003  1.00272187 52711
BEIDOU-2 IGSO-2 (C07)   
1 37256U 10068A   25076.49112807 -.00000177  00000+0  00000+0 0  9994
2 37256  48.3745 277.4695 0039072 211.5885 330.8948  1.00265276 52211
BEIDOU-2 IGSO-3 (C08)   
1 37384U 11013A   25076.34802936 -.00000169  00000+0  00000+0 0  9991
2 37384  61.7617  44.4830 0030552 183.9998 179.3585  1.00289798 51086
BEIDOU-2 IGSO-4 (C09)   
1 37763U 11038A   25072.96254655 -.00000098  00000+0  00000+0 0  9993
2 37763  54.5716 169.7887 0136297 229.5410 211.0488  1.00252333 50023
BEIDOU-2 IGSO-5 (C10)   
1 37948U 11073A   25071.52961520 -.00000153  00000+0  00000+0 0  9996
2 37948  48.5192 277.2302 0100963 219.5366 320.5849  1.00271091 48505
BEIDOU-2 G5 (C05)       
1 38091U 12008A   25076.55298690  .00000062  00000+0  00000+0 0  9992
2 38091   2.4345  71.2389 0012948 253.6114 108.2968  1.00274544 47795
BEIDOU-2 M3 (C11)       
1 38250U 12018A   25076.24070824 -.00000073  00000+0  00000+0 0  9996
2 38250  56.1374 320.2292 0021591 273.5601  86.2478  1.86233820 87438
BEIDOU-2 M4 (C12)       
1 38251U 12018B   25076.17208333 -.00000072  00000+0  00000+0 0  9996
2 38251  56.0415 319.4821 0012658 280.0514  79.8605  1.86232282 87433
BEIDOU-2 M6 (C14)       
1 38775U 12050B   25076.41891739 -.00000008  00000+0  00000+0 0  9997
2 38775  56.1428  78.0441 0014308 335.8274  24.1245  1.86231122 84804
BEIDOU-2 G6 (C02)       
1 38953U 12059A   25076.55802595 -.00000170  00000+0  00000+0 0  9991
2 38953   3.2578  78.1837 0010406 302.0292  80.0541  1.00274128 45336
BEIDOU-3S IGSO-1S (C31) 
1 40549U 15019A   25064.62928826 -.00000134  00000+0  00000+0 0  9995
2 40549  50.0790 301.0843 0033884 194.8569 344.3900  1.00246947 36366
BEIDOU-3S M2S (C58)     
1 40748U 15037A   25075.30025780 -.00000072  00000+0  00000+0 0  9991
2 40748  55.2663 317.7608 0008833 270.6519  89.3019  1.86229237 65591
BEIDOU-3S M1S (C57)     
1 40749U 15037B   25076.10322291 -.00000071  00000+0  00000+0 0  9997
2 40749  55.2623 317.7263 0004469  13.7014 346.3647  1.86253919 65612
BEIDOU-2 IGSO-6 (C13)   
1 41434U 16021A   25075.37722853 -.00000144  00000+0  00000+0 0  9990
2 41434  59.5827  42.6064 0053626 230.3803 132.0871  1.00262519 32897
BEIDOU-2 G7 (C03)       
1 41586U 16037A   25076.57341238 -.00000348  00000+0  00000+0 0  9998
2 41586   1.5404  67.5918 0011056 335.1825  89.5077  1.00267064  2314
BEIDOU-3 M1 (C19)       
1 43001U 17069A   25076.18467184 -.00000008  00000+0  00000+0 0  9997
2 43001  56.2919  78.1839 0012517 304.7780  55.1241  1.86231490 50099
BEIDOU-3 M2 (C20)       
1 43002U 17069B   25075.04853906 -.00000007  00000+0  00000+0 0  9992
2 43002  56.2901  78.2575 0009963 323.6965  36.2599  1.86231004 50069
BEIDOU-3 M7 (C27)       
1 43107U 18003A   25073.18435559 -.00000074  00000+0  00000+0 0  9994
2 43107  54.7265 318.3053 0004692  63.7890 296.3147  1.86232549 48782
BEIDOU-3 M8 (C28)       
1 43108U 18003B   25075.27481815 -.00000074  00000+0  00000+0 0  9993
2 43108  54.7178 318.2170 0003184 286.3434  73.6759  1.86231059 48833
BEIDOU-3 M4 (C22)       
1 43207U 18018A   25076.25283250 -.00000008  00000+0  00000+0 0  9998
2 43207  56.2507  78.2614 0006995 342.9941  17.0024  1.86231406 48234
BEIDOU-3 M3 (C21)       
1 43208U 18018B   25076.31935708 -.00000007  00000+0  00000+0 0  9997
2 43208  56.2502  78.2633 0010095 314.1387  45.7979  1.86231475 48235
BEIDOU-3 M9 (C29)       
1 43245U 18029A   25076.00127154 -.00000069  00000+0  00000+0 0  9992
2 43245  54.5995 315.8886 0001004   2.1742 357.8793  1.86232912 47385
BEIDOU-3 M10 (C30)      
1 43246U 18029B   25073.24738405 -.00000070  00000+0  00000+0 0  9995
2 43246  54.5991 316.0115 0005051  15.8226 344.2494  1.86229090 47318
BEIDOU-2 IGSO-7 (C16)   
1 43539U 18057A   25074.68153205 -.00000131  00000+0  00000+0 0  9997
2 43539  55.1580 167.0347 0085977 235.1955 129.2214  1.00285748 24534
BEIDOU-3 M5 (C23)       
1 43581U 18062A   25074.54673200  .00000000  00000+0  00000+0 0  9991
2 43581  54.1072 197.8977 0002123 296.3663  63.5784  1.86228802 45091
BEIDOU-3 M6 (C24)       
1 43582U 18062B   25076.02206590  .00000016  00000+0  00000+0 0  9998
2 43582  54.1065 197.8370 0005670  38.2867 321.7299  1.86229577 45124
BEIDOU-3 M12 (C26)      
1 43602U 18067A   25076.49400299  .00000019  00000+0  00000+0 0  9992
2 43602  54.1990 196.5274 0007852  34.3037 325.7286  1.86227908 44612
BEIDOU-3 M11 (C25)      
1 43603U 18067B   25075.01689621  .00000007  00000+0  00000+0 0  9995
2 43603  54.1964 196.5419 0004440  27.7595 332.2362  1.86227454 44614
BEIDOU-3 M13 (C32)      
1 43622U 18072A   25076.05050126 -.00000009  00000+0  00000+0 0  9992
2 43622  56.2229  77.7914 0009022 303.1889  56.7443  1.86231322 44145
BEIDOU-3 M14 (C33)      
1 43623U 18072B   25076.45293375 -.00000008  00000+0  00000+0 0  9991
2 43623  56.2251  77.7714 0006585 322.9295  37.0436  1.86231312 44143
BEIDOU-3 M16 (C35)      
1 43647U 18078A   25076.07674661 -.00000069  00000+0  00000+0 0  9999
2 43647  54.4958 315.9618 0008251  23.2224 336.8678  1.86232442 43645
BEIDOU-3 M15 (C34)      
1 43648U 18078B   25076.20598058 -.00000069  00000+0  00000+0 0  9990
2 43648  54.4914 315.9592 0005209  31.1722 328.9114  1.86232338 43663
BEIDOU-3 G1 (C59)       
1 43683U 18085A   25076.56914663 -.00000274  00000+0  00000+0 0  9998
2 43683   2.8738 100.5235 0003397 352.0407  67.6573  1.00268144 23480
BEIDOU-3 M17 (C36)      
1 43706U 18093A   25075.82302414  .00000015  00000+0  00000+0 0  9998
2 43706  54.1901 197.8130 0007222 289.6562  70.2411  1.86228508 43026
BEIDOU-3 M18 (C37)      
1 43707U 18093B   25074.61223966  .00000001  00000+0  00000+0 0  9994
2 43707  54.1910 197.8457 0005980 329.6405  30.2918  1.86229963 42998
BEIDOU-3 IGSO-1 (C38)   
1 44204U 19023A   25075.67865512 -.00000205  00000+0  00000+0 0  9994
2 44204  58.0477  42.3773 0022250 227.9447 268.0725  1.00273531  2621
BEIDOU-2 G8 (C01)       
1 44231U 19027A   25076.57001544 -.00000242  00000+0  00000+0 0  9996
2 44231   1.4587  74.6126 0005811 251.5216 198.9496  1.00275112 21507
BEIDOU-3 IGSO-2 (C39)   
1 44337U 19035A   25075.86289818 -.00000123  00000+0  00000+0 0  9993
2 44337  55.1992 162.8780 0036513 202.0893 236.4708  1.00254965 21081
BEIDOU-3 M24 (C46)      
1 44542U 19061A   25075.21972405  .00000009  00000+0  00000+0 0  9992
2 44542  54.4179 198.1737 0007909  11.7934 348.1955  1.86229104 37263
BEIDOU-3 M23 (C45)      
1 44543U 19061B   25076.42535016  .00000020  00000+0  00000+0 0  9993
2 44543  54.4164 198.1016 0004603   3.6272 357.3479  1.86229381 37294
BEIDOU-3 IGSO-3 (C40)   
1 44709U 19073A   25075.97442723 -.00000158  00000+0  00000+0 0  9994
2 44709  55.5826 285.8192 0042095 181.6805 178.3224  1.00273591 19871
BEIDOU-3 M22 (C44)      
1 44793U 19078A   25076.13707167 -.00000069  00000+0  00000+0 0  9998
2 44793  54.3428 315.8583 0007210  29.7589 330.3347  1.86232182 36137
BEIDOU-3 M21 (C43)      
1 44794U 19078B   25075.19450294 -.00000071  00000+0  00000+0 0  9993
2 44794  54.3171 315.8615 0005233  23.7798 336.2984  1.86227804 36124
BEIDOU-3 M19 (C41)      
1 44864U 19090A   25075.54363248 -.00000008  00000+0  00000+0 0  9996
2 44864  56.1566  77.9644 0020200 286.5539 140.5626  1.86231779 35710
BEIDOU-3 M20 (C42)      
1 44865U 19090B   25076.46410516 -.00000008  00000+0  00000+0 0  9990
2 44865  56.1591  77.9676 0017831 298.1542 115.7737  1.86231723 35719
BEIDOU-3 G2 (C60)       
1 45344U 20017A   25076.53972840 -.00000136  00000+0  00000+0 0  9997
2 45344   2.7164  38.3274 0003077 315.7492  95.6151  1.00271922 18681
BEIDOU-3 G3 (C61)       
1 45807U 20040A   25076.57341238 -.00000348  00000+0  00000+0 0  9997
2 45807   1.3463  61.4920 0003555 324.0087 106.8103  1.00267984 17494
BEIDOU-3 G4 (C62)       
1 56564U 23066A   25076.52896334 -.00000108  00000+0  00000+0 0  9991
2 56564   1.4472 290.4662 0001912 209.0166  26.2953  1.00271704  6816
BEIDOU-3 M28 (C50)      
1 58654U 23207A   25076.34933269 -.00000010  00000+0  00000+0 0  9991
2 58654  55.3446  77.7636 0004968 295.2528  64.7149  1.86232164  8331
BEIDOU-3 M26 (C48)      
1 58655U 23207B   25076.14897952 -.00000011  00000+0  00000+0 0  9999
2 58655  55.3465  77.7564 0005662 281.0377  78.9183  1.86231675  8319
BEIDOU-3 M25 (C47)      
1 61186U 24168B   25076.23133079 -.00000072  00000+0  00000+0 0  9999
2 61186  54.8695 318.0730 0004393 309.6712 223.7566  1.86230364  3276
BEIDOU-3 M27 (C49)      
1 61187U 24168C   25075.46728230 -.00000073  00000+0  00000+0 0  9994
2 61187  54.8655 318.0840 0002915  10.8343 145.1918  1.86230537   732
